[{"OBJECT_NAME":"ONEWEB-0057","OBJECT_ID":"2020-008AF","EPOCH":"2026-05-11T04:34:25.635072","MEAN_MOTION":13.10376399,"ECCENTRICITY":0.0002269,"INCLINATION":87.8862,"RA_OF_ASC_NODE":43.6346,"ARG_OF_PERICENTER":88.1099,"MEAN_ANOMALY":272.0288,"EPHEMERIS_TYPE":0,"CLASSIFICATION_TYPE":"U","NORAD_CAT_ID":45160,"ELEMENT_SET_NO":999,"REV_AT_EPOCH":30350,"BSTAR":0.00059519,"MEAN_MOTION_DOT":2.2e-06,"MEAN_MOTION_DDOT":0.0},{"OBJECT_NAME":"ONEWEB-0058","OBJECT_ID":"2020-008AG","EPOCH":"2026-05-11T04:15:16.704288","MEAN_MOTION":13.10375183,"ECCENTRICITY":0.0001906,"INCLINATION":87.8861,"RA_OF_ASC_NODE":43.6447,"ARG_OF_PERICENTER":71.2854,"MEAN_ANOMALY":288.848,"EPHEMERIS_TYPE":0,"CLASSIFICATION_TYPE":"U","NORAD_CAT_ID":45161,"ELEMENT_SET_NO":999,"REV_AT_EPOCH":30357,"BSTAR":-0.0011989,"MEAN_MOTION_DOT":-4.06e-06,"MEAN_MOTION_DDOT":0.0},{"OBJECT_NAME":"ONEWEB-0059","OBJECT_ID":"2020-008AH","EPOCH":"2026-05-11T04:10:18.522336","MEAN_MOTION":13.10375564,"ECCENTRICITY":0.000207,"INCLINATION":87.8856,"RA_OF_ASC_NODE":43.6446,"ARG_OF_PERICENTER":75.5248,"MEAN_ANOMALY":284.6108,"EPHEMERIS_TYPE":0,"CLASSIFICATION_TYPE":"U","NORAD_CAT_ID":45162,"ELEMENT_SET_NO":999,"REV_AT_EPOCH":30347,"BSTAR":-0.0017305,"MEAN_MOTION_DOT":-5.91e-06,"MEAN_MOTION_DDOT":0.0},{"OBJECT_NAME":"ONEWEB-0062","OBJECT_ID":"2020-008AJ","EPOCH":"2026-05-11T04:43:34.223232","MEAN_MOTION":13.10447616,"ECCENTRICITY":0.0001458,"INCLINATION":87.8862,"RA_OF_ASC_NODE":43.6249,"ARG_OF_PERICENTER":58.1504,"MEAN_ANOMALY":301.9765,"EPHEMERIS_TYPE":0,"CLASSIFICATION_TYPE":"U","NORAD_CAT_ID":45163,"ELEMENT_SET_NO":999,"REV_AT_EPOCH":30334,"BSTAR":-0.038268,"MEAN_MOTION_DOT":-0.00013341,"MEAN_MOTION_DDOT":0.0},{"OBJECT_NAME":"ONEWEB-0065","OBJECT_ID":"2020-008AK","EPOCH":"2026-05-11T03:41:25.359072","MEAN_MOTION":13.10369523,"ECCENTRICITY":0.000193,"INCLINATION":87.8857,"RA_OF_ASC_NODE":43.6418,"ARG_OF_PERICENTER":90.4505,"MEAN_ANOMALY":269.6844,"EPHEMERIS_TYPE":0,"CLASSIFICATION_TYPE":"U","NORAD_CAT_ID":45164,"ELEMENT_SET_NO":999,"REV_AT_EPOCH":30303,"BSTAR":-0.00087159,"MEAN_MOTION_DOT":-2.92e-06,"MEAN_MOTION_DDOT":0.0},{"OBJECT_NAME":"ONEWEB-0066","OBJECT_ID":"2020-020A","EPOCH":"2026-05-11T03:25:34.049280","MEAN_MOTION":13.11420454,"ECCENTRICITY":0.0001965,"INCLINATION":87.8926,"RA_OF_ASC_NODE":28.438,"ARG_OF_PERICENTER":76.7026,"MEAN_ANOMALY":283.4321,"EPHEMERIS_TYPE":0,"CLASSIFICATION_TYPE":"U","NORAD_CAT_ID":45424,"ELEMENT_SET_NO":999,"REV_AT_EPOCH":29782,"BSTAR":-0.00017188000000000001,"MEAN_MOTION_DOT":-4.8e-07,"MEAN_MOTION_DDOT":0.0},{"OBJECT_NAME":"ONEWEB-0067","OBJECT_ID":"2020-020B","EPOCH":"2026-05-11T04:20:22.892064","MEAN_MOTION":13.11420314,"ECCENTRICITY":0.0001948,"INCLINATION":87.894,"RA_OF_ASC_NODE":28.3465,"ARG_OF_PERICENTER":86.8038,"MEAN_ANOMALY":273.3313,"EPHEMERIS_TYPE":0,"CLASSIFICATION_TYPE":"U","NORAD_CAT_ID":45425,"ELEMENT_SET_NO":999,"REV_AT_EPOCH":29788,"BSTAR":0.0002222,"MEAN_MOTION_DOT":9.1e-07,"MEAN_MOTION_DDOT":0.0},{"OBJECT_NAME":"ONEWEB-0080","OBJECT_ID":"2020-020C","EPOCH":"2026-05-11T04:19:29.675712","MEAN_MOTION":13.11415963,"ECCENTRICITY":0.0001664,"INCLINATION":87.8929,"RA_OF_ASC_NODE":28.4243,"ARG_OF_PERICENTER":70.3653,"MEAN_ANOMALY":289.7655,"EPHEMERIS_TYPE":0,"CLASSIFICATION_TYPE":"U","NORAD_CAT_ID":45426,"ELEMENT_SET_NO":999,"REV_AT_EPOCH":29785,"BSTAR":0.00026190999999999996,"MEAN_MOTION_DOT":1.06e-06,"MEAN_MOTION_DDOT":0.0},{"OBJECT_NAME":"ONEWEB-0090","OBJECT_ID":"2020-020D","EPOCH":"2026-05-11T03:11:06.250272","MEAN_MOTION":13.11416607,"ECCENTRICITY":0.0001765,"INCLINATION":87.893,"RA_OF_ASC_NODE":28.4384,"ARG_OF_PERICENTER":78.0615,"MEAN_ANOMALY":282.0711,"EPHEMERIS_TYPE":0,"CLASSIFICATION_TYPE":"U","NORAD_CAT_ID":45427,"ELEMENT_SET_NO":999,"REV_AT_EPOCH":29781,"BSTAR":-0.0012174,"MEAN_MOTION_DOT":-4.19e-06,"MEAN_MOTION_DDOT":0.0},{"OBJECT_NAME":"ONEWEB-0061","OBJECT_ID":"2020-020E","EPOCH":"2026-05-11T03:57:07.209792","MEAN_MOTION":13.11418571,"ECCENTRICITY":0.0001823,"INCLINATION":87.8928,"RA_OF_ASC_NODE":28.4175,"ARG_OF_PERICENTER":78.2914,"MEAN_ANOMALY":281.8418,"EPHEMERIS_TYPE":0,"CLASSIFICATION_TYPE":"U","NORAD_CAT_ID":45428,"ELEMENT_SET_NO":999,"REV_AT_EPOCH":29777,"BSTAR":0.0015973,"MEAN_MOTION_DOT":5.79e-06,"MEAN_MOTION_DDOT":0.0},{"OBJECT_NAME":"ONEWEB-0081","OBJECT_ID":"2020-020F","EPOCH":"2026-05-11T03:30:27.449856","MEAN_MOTION":13.11418869,"ECCENTRICITY":0.000201,"INCLINATION":87.8924,"RA_OF_ASC_NODE":28.4329,"ARG_OF_PERICENTER":80.7779,"MEAN_ANOMALY":279.3576,"EPHEMERIS_TYPE":0,"CLASSIFICATION_TYPE":"U","NORAD_CAT_ID":45429,"ELEMENT_SET_NO":999,"REV_AT_EPOCH":29788,"BSTAR":0.00018538,"MEAN_MOTION_DOT":7.8e-07,"MEAN_MOTION_DDOT":0.0},{"OBJECT_NAME":"ONEWEB-0069","OBJECT_ID":"2020-020G","EPOCH":"2026-05-11T03:24:00.344160","MEAN_MOTION":13.10861269,"ECCENTRICITY":0.0001897,"INCLINATION":87.8928,"RA_OF_ASC_NODE":28.4332,"ARG_OF_PERICENTER":79.8747,"MEAN_ANOMALY":280.2594,"EPHEMERIS_TYPE":0,"CLASSIFICATION_TYPE":"U","NORAD_CAT_ID":45430,"ELEMENT_SET_NO":999,"REV_AT_EPOCH":29781,"BSTAR":-0.00034394000000000004,"MEAN_MOTION_DOT":-1.08e-06,"MEAN_MOTION_DDOT":0.0},{"OBJECT_NAME":"ONEWEB-0031","OBJECT_ID":"2020-020H","EPOCH":"2026-05-11T04:24:09.431136","MEAN_MOTION":13.1141426,"ECCENTRICITY":0.0001713,"INCLINATION":87.8918,"RA_OF_ASC_NODE":28.4359,"ARG_OF_PERICENTER":75.0325,"MEAN_ANOMALY":285.0993,"EPHEMERIS_TYPE":0,"CLASSIFICATION_TYPE":"U","NORAD_CAT_ID":45431,"ELEMENT_SET_NO":999,"REV_AT_EPOCH":29780,"BSTAR":-0.00039091,"MEAN_MOTION_DOT":-1.26e-06,"MEAN_MOTION_DDOT":0.0},{"OBJECT_NAME":"ONEWEB-0027","OBJECT_ID":"2020-020J","EPOCH":"2026-05-11T04:09:14.120640","MEAN_MOTION":13.17650843,"ECCENTRICITY":0.000142,"INCLINATION":87.9178,"RA_OF_ASC_NODE":13.2056,"ARG_OF_PERICENTER":82.6282,"MEAN_ANOMALY":277.501,"EPHEMERIS_TYPE":0,"CLASSIFICATION_TYPE":"U","NORAD_CAT_ID":45432,"ELEMENT_SET_NO":999,"REV_AT_EPOCH":30148,"BSTAR":0.00011527,"MEAN_MOTION_DOT":5.8e-07,"MEAN_MOTION_DDOT":0.0},{"OBJECT_NAME":"ONEWEB-0064","OBJECT_ID":"2020-020K","EPOCH":"2026-05-11T04:21:43.567200","MEAN_MOTION":13.11414077,"ECCENTRICITY":0.000164,"INCLINATION":87.8917,"RA_OF_ASC_NODE":28.4267,"ARG_OF_PERICENTER":78.0944,"MEAN_ANOMALY":282.0368,"EPHEMERIS_TYPE":0,"CLASSIFICATION_TYPE":"U","NORAD_CAT_ID":45433,"ELEMENT_SET_NO":999,"REV_AT_EPOCH":29783,"BSTAR":9.762200000000001e-05,"MEAN_MOTION_DOT":4.7e-07,"MEAN_MOTION_DDOT":0.0},{"OBJECT_NAME":"ONEWEB-0018","OBJECT_ID":"2020-020L","EPOCH":"2026-05-11T03:18:14.404608","MEAN_MOTION":13.11419916,"ECCENTRICITY":0.0002065,"INCLINATION":87.892,"RA_OF_ASC_NODE":28.4348,"ARG_OF_PERICENTER":71.007,"MEAN_ANOMALY":289.1282,"EPHEMERIS_TYPE":0,"CLASSIFICATION_TYPE":"U","NORAD_CAT_ID":45434,"ELEMENT_SET_NO":999,"REV_AT_EPOCH":29777,"BSTAR":-0.00079073,"MEAN_MOTION_DOT":-2.68e-06,"MEAN_MOTION_DDOT":0.0}]