ONEWEB-0057             
1 45160U 20008AF  26131.19057448  .00000220  00000+0  59519-3 0  9992
2 45160  87.8862  43.6346 0002269  88.1099 272.0288 13.10376399303509
ONEWEB-0058             
1 45161U 20008AG  26131.17727667 -.00000406  00000+0 -11989-2 0  9994
2 45161  87.8861  43.6447 0001906  71.2854 288.8480 13.10375183303576
ONEWEB-0059             
1 45162U 20008AH  26131.17382549 -.00000591  00000+0 -17305-2 0  9994
2 45162  87.8856  43.6446 0002070  75.5248 284.6108 13.10375564303470
ONEWEB-0062             
1 45163U 20008AJ  26131.19692388 -.00013341  00000+0 -38268-1 0  9999
2 45163  87.8862  43.6249 0001458  58.1504 301.9765 13.10447616303346
ONEWEB-0065             
1 45164U 20008AK  26131.15376573 -.00000292  00000+0 -87159-3 0  9997
2 45164  87.8857  43.6418 0001930  90.4505 269.6844 13.10369523303038
ONEWEB-0066             
1 45424U 20020A   26131.14275520 -.00000048  00000+0 -17188-3 0  9993
2 45424  87.8926  28.4380 0001965  76.7026 283.4321 13.11420454297821
ONEWEB-0067             
1 45425U 20020B   26131.18082051  .00000091  00000+0  22220-3 0  9992
2 45425  87.8940  28.3465 0001948  86.8038 273.3313 13.11420314297887
ONEWEB-0080             
1 45426U 20020C   26131.18020458  .00000106  00000+0  26191-3 0  9994
2 45426  87.8929  28.4243 0001664  70.3653 289.7655 13.11415963297857
ONEWEB-0090             
1 45427U 20020D   26131.13271123 -.00000419  00000+0 -12174-2 0  9991
2 45427  87.8930  28.4384 0001765  78.0615 282.0711 13.11416607297812
ONEWEB-0061             
1 45428U 20020E   26131.16466678  .00000579  00000+0  15973-2 0  9991
2 45428  87.8928  28.4175 0001823  78.2914 281.8418 13.11418571297775
ONEWEB-0081             
1 45429U 20020F   26131.14615104  .00000078  00000+0  18538-3 0  9995
2 45429  87.8924  28.4329 0002010  80.7779 279.3576 13.11418869297888
ONEWEB-0069             
1 45430U 20020G   26131.14167065 -.00000108  00000+0 -34394-3 0  9999
2 45430  87.8928  28.4332 0001897  79.8747 280.2594 13.10861269297813
ONEWEB-0031             
1 45431U 20020H   26131.18344249 -.00000126  00000+0 -39091-3 0  9994
2 45431  87.8918  28.4359 0001713  75.0325 285.0993 13.11414260297800
ONEWEB-0027             
1 45432U 20020J   26131.17308010  .00000058  00000+0  11527-3 0  9996
2 45432  87.9178  13.2056 0001420  82.6282 277.5010 13.17650843301488
ONEWEB-0064             
1 45433U 20020K   26131.18175425  .00000047  00000+0  97622-4 0  9999
2 45433  87.8917  28.4267 0001640  78.0944 282.0368 13.11414077297830
ONEWEB-0018             
1 45434U 20020L   26131.13766672 -.00000268  00000+0 -79073-3 0  9991
2 45434  87.8920  28.4348 0002065  71.0070 289.1282 13.11419916297773
